{"type": "FeatureCollection", "features": [{"type": "Feature", "id": "PH1303901", "properties": {"cityPsgc": "PH1303901", "city": "City of Manila"}, "geometry": {"type": "Polygon", "coordinates": [[[120.98508259400012, 14.63997936800007], [120.98398126100005, 14.63800423900005], [120.98497912700009, 14.637137950000067], [120.98296303100004, 14.636515006000025], [120.97979416600002, 14.639568177000054], [120.97990545500012, 14.63553062200003], [120.97776629900011, 14.635162092000028], [120.96550759800006, 14.63459860800003], [120.96420763100002, 14.63652339400005], [120.96222793100004, 14.635137024000075], [120.96135461400002, 14.636398148000067], [120.95704763600008, 14.633331012000045], [120.9414001470001, 14.634242946000033], [120.94506191800008, 14.629397471000061], [120.9592946470001, 14.629373004000055], [120.95955187100003, 14.626006337000037], [120.9550674730001, 14.62821831700006], [120.95384122300004, 14.628153188000052], [120.95360686900005, 14.625750771000071], [120.95510508900009, 14.620824032000034], [120.95805481100001, 14.620211042000053], [120.95642474400007, 14.619377238000027], [120.95687171600004, 14.613395350000072], [120.95937326900004, 14.61359025300004], [120.95745139800012, 14.61179362400003], [120.95947552300005, 14.611948483000049], [120.95761374200004, 14.609838795000032], [120.95967300200005, 14.609967048000044], [120.95781545400008, 14.607856417000049], [120.95983265300005, 14.607991991000066], [120.95797906800011, 14.605874592000072], [120.95999460700011, 14.606008096000036], [120.95815044700008, 14.603890367000078], [120.96014457600008, 14.604044889000019], [120.96024106900006, 14.602883813000062], [120.95780544900003, 14.601813620000028], [120.96029789700005, 14.602000235000046], [120.9604671830001, 14.600846682000054], [120.9565532370001, 14.600498440000022], [120.94403567600011, 14.617751709000062], [120.94807151700002, 14.612045703000032], [120.946883629, 14.609806572000029], [120.94773763100011, 14.607739162000028], [120.95421043900002, 14.601105148000048], [120.94208805700009, 14.598601413000033], [120.9351555180001, 14.60286315700006], [120.93279649300007, 14.602898354000047], [120.94261376800013, 14.598192125000025], [120.94337158800012, 14.594770830000074], [120.96677920700006, 14.59641979200006], [120.96752885900004, 14.59531896900006], [120.95978276400001, 14.594898619000048], [120.95386802400004, 14.591119100000068], [120.95903865900003, 14.584665776000065], [120.95597131200007, 14.57864976100007], [120.9557571590001, 14.57813588700003], [120.95566585200004, 14.572555456000028], [120.95578642800001, 14.578200548000037], [120.96128198000008, 14.588906059000061], [120.96160772100006, 14.592231017000072], [120.96278519300006, 14.59021254600003], [120.96242866200011, 14.592680551000054], [120.96311551200006, 14.59379571900007], [120.96483267500001, 14.591103529000067], [120.96195479200001, 14.58656067400005], [120.96476285200005, 14.588575577000029], [120.96573570500003, 14.587513071000046], [120.96194519000007, 14.583232450000022], [120.96637735100002, 14.586796698000054], [120.96731038100005, 14.585849845000043], [120.9649026830001, 14.583533677000048], [120.9680974050001, 14.585267167000042], [120.96901624600004, 14.584225480000041], [120.9668058630001, 14.58105025300006], [120.96946961400009, 14.583628082000075], [120.97073338500002, 14.582781201000042], [120.96887358700008, 14.579594577000027], [120.97274582100012, 14.583159377000065], [120.97232829700009, 14.578818031000026], [120.97441763200005, 14.577523906000067], [120.97557632200007, 14.578445250000076], [120.9770793890001, 14.57585497400003], [120.97942024000008, 14.575287630000043], [120.98546445900003, 14.562417100000062], [120.98510948800003, 14.560271794000073], [120.98678599600011, 14.560332775000067], [120.98751161400004, 14.558607406000023], [120.99905087700006, 14.561899275000027], [121.01761120300011, 14.579408116000023], [121.01712672800011, 14.581149948000077], [121.02596856100001, 14.591916051000057], [121.02617047000001, 14.593990118000022], [121.02373756500005, 14.599292255000028], [121.01962265700001, 14.60305778500003], [120.98988594100001, 14.62564046500006], [120.99305930000003, 14.635932792000059], [120.98820503500008, 14.63773415400004], [120.98886937800013, 14.639798129000043], [120.98508259400012, 14.63997936800007]]]}}, {"type": "Feature", "id": "PH1307401", "properties": {"cityPsgc": "PH1307401", "city": "City of Mandaluyong"}, "geometry": {"type": "Polygon", "coordinates": [[[121.05966011600003, 14.59007071800005], [121.05728732400006, 14.589617128000045], [121.05975421100005, 14.597914198000073], [121.05924493500004, 14.601644073000044], [121.0517763150001, 14.601365661000047], [121.0415911020001, 14.592111770000027], [121.03468091900004, 14.590720646000024], [121.02724899300004, 14.595871856000032], [121.02596856100001, 14.591916051000057], [121.01704669300013, 14.580975754000068], [121.03467973800004, 14.567247635000056], [121.04275851500006, 14.568696423000064], [121.0513976430001, 14.56794117400006], [121.05589603300007, 14.57212743800005], [121.05595320400005, 14.576604542000045], [121.05987154900005, 14.581568914000059], [121.05966011600003, 14.59007071800005]]]}}, {"type": "Feature", "id": "PH1307402", "properties": {"cityPsgc": "PH1307402", "city": "City of Marikina"}, "geometry": {"type": "Polygon", "coordinates": [[[121.09784730800004, 14.619839287000046], [121.10495984200008, 14.621358134000042], [121.10383662500008, 14.626708193000074], [121.10549838300007, 14.632654354000069], [121.1085360820001, 14.636495850000076], [121.11207000800005, 14.63616927600003], [121.11583293700004, 14.638273890000049], [121.1190631940001, 14.635478176000046], [121.12376552, 14.637800583000056], [121.13001300700012, 14.634344953000038], [121.12855805700009, 14.643593338000073], [121.13133300500012, 14.65346521900005], [121.13460987400005, 14.654541611000075], [121.13503641400007, 14.657663518000053], [121.13064850100012, 14.664855701000018], [121.13120663300003, 14.66783240300003], [121.1261471470001, 14.66997417700003], [121.12501273300006, 14.66685227000005], [121.1218227620001, 14.666384891000062], [121.12053310700004, 14.670488563000047], [121.11615055800007, 14.673949245000072], [121.11343346100011, 14.671622149000026], [121.11236098400002, 14.672821908000062], [121.11069446700003, 14.669853092000036], [121.11057805500003, 14.672975989000063], [121.10670234300007, 14.675499389000038], [121.099626681, 14.669651418000056], [121.09772600800011, 14.663973611000074], [121.09521536200008, 14.667784628000051], [121.08976019500005, 14.662515672000044], [121.0873358120001, 14.65224377800007], [121.08550148100007, 14.652697972000059], [121.08497514300005, 14.65147422900003], [121.08747404600001, 14.648406804000048], [121.08770942400008, 14.64482326500007], [121.08222618100002, 14.642168659000045], [121.08152851200008, 14.639122946000045], [121.07726146400012, 14.635160464000021], [121.07690482200007, 14.629546291000052], [121.0744057940001, 14.628550651000067], [121.07648373800009, 14.62181915000002], [121.07553645500003, 14.619686231000056], [121.07903023100006, 14.617969850000065], [121.08365058700008, 14.624011572000027], [121.09784730800004, 14.619839287000046]]]}}, {"type": "Feature", "id": "PH1307403", "properties": {"cityPsgc": "PH1307403", "city": "City of Pasig"}, "geometry": {"type": "Polygon", "coordinates": [[[121.10187866500006, 14.620657343000058], [121.09784730800004, 14.619839287000046], [121.08469085900003, 14.623888743000062], [121.08254504000001, 14.622996320000029], [121.07836434700003, 14.615291516000065], [121.0796125820001, 14.612652648000054], [121.088134791, 14.60606859500007], [121.0902267250001, 14.599483759000066], [121.08856268700002, 14.599032092000073], [121.0849731190001, 14.603263502000061], [121.08280987, 14.603097099000028], [121.08304477700004, 14.590232025000034], [121.07988362900005, 14.589722746000067], [121.07979669400004, 14.591924165000023], [121.07373880000011, 14.593387968000059], [121.05966011600003, 14.59007071800005], [121.05987154900005, 14.581568914000059], [121.05595320400005, 14.576604542000045], [121.05589603300007, 14.57212743800005], [121.0513976430001, 14.56794117400006], [121.06700656800001, 14.559267901000055], [121.06454746800011, 14.553111145000063], [121.06546257500008, 14.552184556000046], [121.070956066, 14.552397345000024], [121.07582496400005, 14.549826778000067], [121.074889535, 14.547957003000022], [121.07734404200005, 14.546629719000068], [121.08775358300012, 14.546951751000055], [121.08782208900006, 14.545304730000057], [121.09436799700006, 14.546736230000024], [121.09628064200002, 14.540916531000049], [121.10359037400008, 14.532237988000077], [121.10700168300002, 14.545701014000032], [121.10972207600004, 14.546624930000064], [121.1010147510001, 14.553572467000036], [121.09912240200003, 14.55331753900003], [121.09818071600012, 14.55859849700005], [121.09637116600004, 14.560206091000047], [121.09808476800005, 14.562368499000058], [121.09594815500009, 14.56385213200002], [121.0968965510001, 14.569254547000074], [121.10176341700003, 14.573731944000032], [121.1009745340001, 14.574820267000064], [121.10905753300005, 14.580946777000065], [121.10864271800007, 14.587715427000031], [121.10345673100007, 14.588897737000025], [121.10369517200003, 14.593668617000048], [121.10475710500009, 14.592228198000042], [121.11044978200005, 14.592235448000055], [121.1019327580001, 14.615649672000071], [121.10187866500006, 14.620657343000058]]]}}, {"type": "Feature", "id": "PH1307404", "properties": {"cityPsgc": "PH1307404", "city": "Quezon City"}, "geometry": {"type": "Polygon", "coordinates": [[[121.10670234300007, 14.675499389000038], [121.1121687010001, 14.684747919000074], [121.11146916300005, 14.69566768200002], [121.11467589100003, 14.697843459000072], [121.12010187400006, 14.698593123000025], [121.1204377690001, 14.701429566000058], [121.11640583700012, 14.705626875000062], [121.11599242800001, 14.709234545000077], [121.11791254900004, 14.712185830000061], [121.11977186300008, 14.711820449000072], [121.12375939200001, 14.707338821000066], [121.125063575, 14.719831102000057], [121.1258152700001, 14.72139937300005], [121.13098795500002, 14.722917543000053], [121.13150281800007, 14.724533383000052], [121.12926705300002, 14.728125032000037], [121.12614072600003, 14.726651681000025], [121.12350383900002, 14.72766879000005], [121.12169877500003, 14.725227084000041], [121.11802297800013, 14.729928850000022], [121.12234659300009, 14.738127089000043], [121.1181097640001, 14.739392745000027], [121.11777222700005, 14.746046385000053], [121.12163560400006, 14.757725479000044], [121.12603578200002, 14.762583980000045], [121.12478007000006, 14.766289029000061], [121.12984058600013, 14.772511793000037], [121.1331451210001, 14.773060869000062], [121.1349717920001, 14.776730445000055], [121.13358931500012, 14.777655922000061], [121.1321174950001, 14.776390408000054], [121.12883497500002, 14.77756299700008], [121.12513574900004, 14.775459382000063], [121.12119922200007, 14.776029560000044], [121.114652653, 14.77216348600007], [121.10968224500004, 14.763837527000021], [121.10491462400012, 14.762656063000058], [121.101977884, 14.765484873000048], [121.09972917900006, 14.765222305000064], [121.09979889200008, 14.762714034000055], [121.09102126100005, 14.758445970000023], [121.08593385900008, 14.758682793000048], [121.08478153300007, 14.75184930800003], [121.0750391780001, 14.74019406700006], [121.07305401700013, 14.741289159000067], [121.0672327310001, 14.73920210400007], [121.06725470200003, 14.742203238000055], [121.05332690700006, 14.742122499000061], [121.05330898600005, 14.74011838000007], [121.04995996900004, 14.742089111000041], [121.04083690900006, 14.742111187000035], [121.03876741500007, 14.740554238000074], [121.03941935900002, 14.737598432000027], [121.03786539900011, 14.737582474000023], [121.03789804500002, 14.73601830500007], [121.03397876600002, 14.735899964000055], [121.03215825500001, 14.733171696000056], [121.028081884, 14.733364325000029], [121.02878736700008, 14.729425610000018], [121.02383979900003, 14.728499939000072], [121.02558428100006, 14.725623835000023], [121.02335320600002, 14.724037701000043], [121.0202148840001, 14.724787652000028], [121.01769830200008, 14.71948370900003], [121.01443080000003, 14.719158309000022], [121.01452979200008, 14.710004431000076], [121.01889460700012, 14.706589749000045], [121.01741082300009, 14.701962527000038], [121.02462678100007, 14.693772084000045], [121.02257449100011, 14.690437151000024], [121.02265398600002, 14.687140174000033], [121.01874570100006, 14.685089179000041], [121.00549789400009, 14.67190995900006], [121.00069382100004, 14.664714165000074], [120.99997349600005, 14.65879779600004], [120.99127371500005, 14.639904883000044], [120.99343821600009, 14.637072620000026], [120.98988594100001, 14.62564046500006], [121.01915248400007, 14.60318034400006], [121.02227899300009, 14.607380090000051], [121.02159291500006, 14.609916806000058], [121.02328190000003, 14.613483535000057], [121.02864453100005, 14.612030739000028], [121.0298228580001, 14.613123084000055], [121.03685725600009, 14.608459181000057], [121.0377023420001, 14.606355012000055], [121.04299056400009, 14.609623737000051], [121.05003333600006, 14.609656116000057], [121.05206674800003, 14.604565912000057], [121.05698226300002, 14.606653918000061], [121.05924493500004, 14.601644073000044], [121.05975421100005, 14.597914198000073], [121.05728732400006, 14.589617128000045], [121.07373880000011, 14.593387968000059], [121.07979669400004, 14.591924165000023], [121.07988362900005, 14.589722746000067], [121.08304477700004, 14.590232025000034], [121.08280987, 14.603097099000028], [121.0849731190001, 14.603263502000061], [121.08856268700002, 14.599032092000073], [121.0902267250001, 14.599483759000066], [121.09034558500002, 14.60169455200003], [121.088134791, 14.60606859500007], [121.0796125820001, 14.612652648000054], [121.07903023100006, 14.617969850000065], [121.07553645500003, 14.619686231000056], [121.07648373800009, 14.62181915000002], [121.0744057940001, 14.628550651000067], [121.07690482200007, 14.629546291000052], [121.07726146400012, 14.635160464000021], [121.08152851200008, 14.639122946000045], [121.08222618100002, 14.642168659000045], [121.08770942400008, 14.64482326500007], [121.08747404600001, 14.648406804000048], [121.08497514300005, 14.65147422900003], [121.08550148100007, 14.652697972000059], [121.0873358120001, 14.65224377800007], [121.08976019500005, 14.662515672000044], [121.09521536200008, 14.667784628000051], [121.09772600800011, 14.663973611000074], [121.099626681, 14.669651418000056], [121.10670234300007, 14.675499389000038]]]}}, {"type": "Feature", "id": "PH1307405", "properties": {"cityPsgc": "PH1307405", "city": "City of San Juan"}, "geometry": {"type": "Polygon", "coordinates": [[[121.05924493500004, 14.601644073000044], [121.05698226300002, 14.606653918000061], [121.05206674800003, 14.604565912000057], [121.05003333600006, 14.609656116000057], [121.04299056400009, 14.609623737000051], [121.0377023420001, 14.606355012000055], [121.03685725600009, 14.608459181000057], [121.0298228580001, 14.613123084000055], [121.02864453100005, 14.612030739000028], [121.02328190000003, 14.613483535000057], [121.02159291500006, 14.609916806000058], [121.02227899300009, 14.607380090000051], [121.01962265700001, 14.60305778500003], [121.02603883000006, 14.59479852000004], [121.02724899300004, 14.595871856000032], [121.03468091900004, 14.590720646000024], [121.0415911020001, 14.592111770000027], [121.0517763150001, 14.601365661000047], [121.05924493500004, 14.601644073000044]]]}}, {"type": "Feature", "id": "PH1307501", "properties": {"cityPsgc": "PH1307501", "city": "Caloocan City"}, "geometry": {"type": "MultiPolygon", "coordinates": [[[[121.01480963500002, 14.709835197000068], [121.01443080000003, 14.719158309000022], [121.01769830200008, 14.71948370900003], [121.0202148840001, 14.724787652000028], [121.02335320600002, 14.724037701000043], [121.02558428100006, 14.725623835000023], [121.02383979900003, 14.728499939000072], [121.0290289940001, 14.728308590000042], [121.02736084300011, 14.730136578000039], [121.028081884, 14.733364325000029], [121.03190821800001, 14.731987090000077], [121.03397876600002, 14.735899964000055], [121.03789804500002, 14.73601830500007], [121.03786539900011, 14.737582474000023], [121.03941935900002, 14.737598432000027], [121.03876741500007, 14.740554238000074], [121.04083690900006, 14.742111187000035], [121.05181622000009, 14.74186253200003], [121.05261358400001, 14.740044656000062], [121.05332690700006, 14.742122499000061], [121.066429803, 14.742286459000072], [121.0672327310001, 14.73920210400007], [121.07305401700013, 14.741289159000067], [121.0750391780001, 14.74019406700006], [121.08393741200007, 14.75034921300005], [121.08593385900008, 14.758682793000048], [121.09102126100005, 14.758445970000023], [121.09762136900007, 14.762776548000032], [121.09979889200008, 14.762714034000055], [121.09935888700012, 14.771236387000046], [121.0962001490001, 14.76831194900006], [121.09389891800004, 14.77095770400007], [121.0911466020001, 14.767229904000034], [121.08946408500003, 14.76948084600002], [121.08634344800011, 14.768547111000025], [121.08797582000011, 14.77057416800005], [121.08667372000002, 14.773334395000063], [121.08382999100003, 14.773037461000053], [121.08218891600005, 14.774794198000054], [121.08093383800008, 14.771124569000047], [121.08057925900005, 14.773136531000029], [121.07760115800012, 14.773477818000057], [121.0773911670001, 14.77656839000002], [121.072213507, 14.771775369000066], [121.07150042900004, 14.775874928000059], [121.06686522900009, 14.773716812000034], [121.06706325800008, 14.776512402000037], [121.06565511200004, 14.777533081000055], [121.06298962200002, 14.774852559000065], [121.06281189200001, 14.778688669000076], [121.0614018660001, 14.779166082000076], [121.05954269600012, 14.777101461000024], [121.05921910000006, 14.78073179800003], [121.05747752800004, 14.780195], [121.05542050700002, 14.782563240000055], [121.0545822250001, 14.781180080000071], [121.04992521500003, 14.783156044000066], [121.04394383900002, 14.780403640000033], [121.03815293800005, 14.785291728000058], [121.03245826100012, 14.782928769000023], [121.03023198800008, 14.783737745000053], [121.03008824000004, 14.781390382000037], [121.028329718, 14.781832778000021], [121.02754561700009, 14.779738990000048], [121.02500613600012, 14.779326235000038], [121.02805707100003, 14.777713108000055], [121.02600331800011, 14.776554988000047], [121.02730961300006, 14.774709380000047], [121.02353639000012, 14.773813576000064], [121.0266373400001, 14.771406580000077], [121.02402399100004, 14.763034879000028], [121.00890606500003, 14.75675172700005], [121.00833460600008, 14.754411855000063], [121.00086528200005, 14.753523324000069], [121.00290955100002, 14.748822999000028], [121.00704788100006, 14.745780776000055], [121.00354008500005, 14.735622580000037], [121.0049879300001, 14.729628423000063], [121.00026595000008, 14.719042462000058], [121.0020321630001, 14.715567851000063], [121.00024551500007, 14.714251076000037], [121.00883449800006, 14.711963953000065], [121.01136295900005, 14.707987172000058], [121.01480963500002, 14.709835197000068]]], [[[121.02257449100011, 14.690437151000024], [121.0152977680001, 14.692058589000059], [121.01308364300007, 14.690015489000073], [121.013920503, 14.68475108300004], [121.011792796, 14.68221948800004], [121.0043180790001, 14.687246274000069], [120.99969488700003, 14.684437688000058], [120.99614758700011, 14.67531247400006], [121.00039724400007, 14.669434518000056], [120.99594116000003, 14.668352377000073], [120.98820503800005, 14.662747355000022], [120.98256190200004, 14.660451592000074], [120.9782312860001, 14.662284311000064], [120.97209519400006, 14.661715538000065], [120.96772549, 14.658533070000034], [120.96182869100004, 14.65945243400006], [120.96357547800007, 14.654711323000067], [120.96218708000004, 14.653488226000034], [120.96486275400002, 14.650648591000046], [120.96205879400009, 14.648187777000029], [120.96376394600009, 14.646345454000027], [120.96064355100009, 14.64329589500005], [120.96167514500007, 14.64209927100006], [120.96392559800006, 14.643371035000028], [120.96515373400007, 14.639546890000076], [120.96879733300011, 14.638366503000043], [120.96862458700002, 14.63559090800004], [120.97990545500012, 14.63553062200003], [120.97908823400009, 14.638697137000062], [120.98150069300006, 14.638577732000044], [120.98296303100004, 14.636515006000025], [120.98483694700008, 14.636977976000027], [120.98398126100005, 14.63800423900005], [120.98568229900003, 14.639655100000025], [120.98886937800013, 14.639798129000043], [120.98849475700001, 14.637619194000019], [120.99313591600004, 14.636168197000075], [120.99127371500005, 14.639904883000044], [120.99997349600005, 14.65879779600004], [121.00032029300007, 14.664603180000025], [121.00549789400009, 14.67190995900006], [121.00680598500004, 14.671133672000053], [121.00661504400013, 14.673018934000025], [121.01320493900005, 14.676800512000058], [121.01294286600012, 14.678252199000042], [121.01835500800007, 14.684678537000023], [121.02265398600002, 14.687140174000033], [121.02257449100011, 14.690437151000024]]]]}}, {"type": "Feature", "id": "PH1307502", "properties": {"cityPsgc": "PH1307502", "city": "City of Malabon"}, "geometry": {"type": "Polygon", "coordinates": [[[120.95614066100006, 14.695989081000048], [120.94533687500007, 14.688489937000043], [120.93012120100002, 14.70222216800005], [120.92733208400013, 14.702649063000022], [120.92350922800007, 14.699165367000036], [120.93752182500009, 14.686525287000048], [120.9368473280001, 14.681819384000047], [120.94744168900002, 14.665518086000077], [120.95077574600009, 14.654095703000054], [120.95292922600005, 14.651866861000023], [120.95599454000002, 14.654119240000057], [120.96225962600012, 14.645016088000034], [120.96376394600009, 14.646345454000027], [120.96205879400009, 14.648187777000029], [120.96486275400002, 14.650648591000046], [120.96218708000004, 14.653488226000034], [120.96357547800007, 14.654711323000067], [120.96182869100004, 14.65945243400006], [120.96772549, 14.658533070000034], [120.97209519400006, 14.661715538000065], [120.97746773500012, 14.66231128600003], [120.98256190200004, 14.660451592000074], [120.99594116000003, 14.668352377000073], [121.00039724400007, 14.669434518000056], [120.99614758700011, 14.67531247400006], [120.98569540800008, 14.66879355100002], [120.97985074400003, 14.671214976000048], [120.97838490400011, 14.674829518000019], [120.97478310300006, 14.674882401000044], [120.97346038200011, 14.678208899000028], [120.96727181500012, 14.678538859000069], [120.96485998900005, 14.674997554000065], [120.96437305900008, 14.682727845000045], [120.95614066100006, 14.695989081000048]]]}}, {"type": "Feature", "id": "PH1307503", "properties": {"cityPsgc": "PH1307503", "city": "City of Navotas"}, "geometry": {"type": "Polygon", "coordinates": [[[120.92733208400013, 14.702649063000022], [120.92637820500009, 14.705351413000075], [120.91841488700004, 14.712960826000025], [120.91490650500009, 14.712337047000068], [120.91416393100006, 14.707311064000066], [120.9065588090001, 14.70096452000007], [120.92536221600005, 14.683986922000035], [120.92786631700005, 14.678325805000043], [120.93075990400008, 14.676219540000035], [120.93064094800002, 14.674075189000057], [120.93897084700006, 14.664553995000063], [120.93892709200009, 14.662568395000054], [120.94711374500001, 14.65383847800007], [120.9485925030001, 14.648364154000033], [120.94765937300008, 14.646028170000022], [120.95423291700001, 14.636178884000062], [120.9568059950001, 14.635581385000018], [120.95698790300004, 14.633960806000061], [120.96135461400002, 14.636398148000067], [120.96222793100004, 14.635137024000075], [120.96420763100002, 14.63652339400005], [120.96550759800006, 14.63459860800003], [120.96862969400001, 14.635167148000049], [120.96879733300011, 14.638366503000043], [120.96515373400007, 14.639546890000076], [120.96392559800006, 14.643371035000028], [120.96167514500007, 14.64209927100006], [120.96064355100009, 14.64329589500005], [120.96241565300011, 14.644711050000069], [120.95599454000002, 14.654119240000057], [120.95292922600005, 14.651866861000023], [120.95077574600009, 14.654095703000054], [120.94744168900002, 14.665518086000077], [120.9368473280001, 14.681819384000047], [120.93752182500009, 14.686525287000048], [120.92350922800007, 14.699165367000036], [120.92733208400013, 14.702649063000022]]]}}, {"type": "Feature", "id": "PH1307504", "properties": {"cityPsgc": "PH1307504", "city": "City of Valenzuela"}, "geometry": {"type": "Polygon", "coordinates": [[[121.00290955100002, 14.748822999000028], [120.99781994400006, 14.758378777000072], [120.99481552800013, 14.756351613000046], [120.98955694900008, 14.75774144700006], [120.9891736630001, 14.753565215000034], [120.98582462300011, 14.75074766600005], [120.98162907100004, 14.740755374000058], [120.98106158100006, 14.735977454000025], [120.97852281100006, 14.73480671900006], [120.98298298400005, 14.725317432000056], [120.97778801200002, 14.724137507000021], [120.97571062500003, 14.725654238000061], [120.96950173200003, 14.722038837000069], [120.96768144600001, 14.72386791200006], [120.96252944000003, 14.719758879000036], [120.95955042400011, 14.719873626000034], [120.95683940000005, 14.722607696000066], [120.95424924100008, 14.728546895000022], [120.95236551000005, 14.729162216000079], [120.9492786620001, 14.73419668900004], [120.94371322100007, 14.733749728000076], [120.94139839400007, 14.737112462000027], [120.93890695100004, 14.737181503000045], [120.93633694300001, 14.736818515000042], [120.9349118020001, 14.733277761000068], [120.92701620000004, 14.736080406000042], [120.92596146500011, 14.734299748000069], [120.93057831200008, 14.72495208600003], [120.92938202800009, 14.72431209100006], [120.93571315800011, 14.714871993000035], [120.95183049900004, 14.69504510900003], [120.95312750500011, 14.694240067000067], [120.95614066100006, 14.695989081000048], [120.96437305900008, 14.682727845000045], [120.96485998900005, 14.674997554000065], [120.96727181500012, 14.678538859000069], [120.97346038200011, 14.678208899000028], [120.97478310300006, 14.674882401000044], [120.97838490400011, 14.674829518000019], [120.97985074400003, 14.671214976000048], [120.9867227090001, 14.66882233600006], [120.99665720500002, 14.675853090000032], [120.99937942300005, 14.683973744000074], [121.00274890300011, 14.686836705000072], [121.0063778980001, 14.686354851000031], [121.011792796, 14.68221948800004], [121.013920503, 14.68475108300004], [121.01308364300007, 14.690015489000073], [121.0152977680001, 14.692058589000059], [121.02137183100001, 14.690410287000075], [121.02393330600013, 14.691217755000025], [121.02462678100007, 14.693772084000045], [121.01741082300009, 14.701962527000038], [121.01886874000002, 14.70715549500005], [121.01715600000011, 14.70700166300003], [121.01701624600004, 14.70898151000006], [121.01268344200004, 14.709785618000069], [121.01136295900005, 14.707987172000058], [121.00883449800006, 14.711963953000065], [121.00024551500007, 14.714251076000037], [121.0020321630001, 14.715567851000063], [121.00026595000008, 14.719042462000058], [121.0049879300001, 14.729628423000063], [121.00354008500005, 14.735622580000037], [121.00704788100006, 14.745780776000055], [121.00290955100002, 14.748822999000028]]]}}, {"type": "Feature", "id": "PH1307601", "properties": {"cityPsgc": "PH1307601", "city": "City of Las Pi\u00f1as"}, "geometry": {"type": "MultiPolygon", "coordinates": [[[[120.9780115530001, 14.489099628000075], [120.97626195400005, 14.49011177400007], [120.97471680300009, 14.488121566000078], [120.97207493800012, 14.481399169000042], [120.9780115530001, 14.489099628000075]]], [[[121.0243382450001, 14.436169403000063], [121.02064535500007, 14.435414469000024], [121.01121079700012, 14.452593389000068], [121.00411656000006, 14.455022358000063], [121.00175103200003, 14.453732070000058], [121.00221383300004, 14.46725885300003], [120.996718567, 14.47425229300006], [120.991210689, 14.476079693000031], [120.99035422600002, 14.47833448000006], [120.99247786100013, 14.483172892000027], [120.98952517300008, 14.482288854000045], [120.98077125500004, 14.48746457600004], [120.9772163140001, 14.481558178000057], [120.97118600400006, 14.477618671000076], [120.97246431600001, 14.477869912000076], [120.97018689200003, 14.475380463000022], [120.97144650400003, 14.471315368000033], [120.9681106810001, 14.471218677000017], [120.9675869130001, 14.469775532000028], [120.96960798300007, 14.468530394000023], [120.96595096500006, 14.465177050000019], [120.97045243900004, 14.454728424000054], [120.96992547900005, 14.446625819000072], [120.97409510600004, 14.439106137000072], [120.98410719000003, 14.433397659000029], [120.98566454800005, 14.425988149000034], [120.98709123300011, 14.426103077000048], [120.98674640900003, 14.422748649000027], [120.98994770300011, 14.421880769000037], [120.9903798150001, 14.416101280000078], [120.99482840700013, 14.411104362000053], [120.99525070300001, 14.405864725000077], [120.99842417100001, 14.40523737800004], [121.00210210600005, 14.399287217000047], [121.00173473400002, 14.394243259000056], [121.00785481900004, 14.390869810000028], [121.00666103300011, 14.387115552000067], [121.0091436230001, 14.381330670000064], [121.01161116900006, 14.380260945000037], [121.0107845030001, 14.374852788000055], [121.01255710800002, 14.374886601000075], [121.01344750200008, 14.379234479000047], [121.01044075000004, 14.384692120000066], [121.00932225500003, 14.391410368000034], [121.01227971100003, 14.405077597000059], [121.02240396000002, 14.422385589000042], [121.0243382450001, 14.436169403000063]]]]}}, {"type": "Feature", "id": "PH1307602", "properties": {"cityPsgc": "PH1307602", "city": "City of Makati"}, "geometry": {"type": "Polygon", "coordinates": [[[121.06431954100005, 14.551917179000043], [121.06700656800001, 14.559267901000055], [121.05999299200003, 14.563979678000063], [121.04961303600008, 14.56855985000004], [121.03416050400004, 14.567387959000026], [121.01761120300011, 14.579408116000023], [120.9988221530001, 14.56171635700002], [121.00150473300005, 14.552706514000024], [121.00929099700011, 14.547564459000057], [121.00901621700007, 14.540370066000035], [121.01294378600006, 14.539075190000068], [121.01217785500013, 14.529659042000045], [121.015580655, 14.53087197700006], [121.01685265200003, 14.529570789000047], [121.02174932300011, 14.53020596400006], [121.0312109140001, 14.53492598400004], [121.033448635, 14.533932557000071], [121.03863151700011, 14.53672719900004], [121.03970020400006, 14.53983291400004], [121.04472253200004, 14.54079623800004], [121.046393995, 14.542844201000033], [121.04699974500012, 14.53548545600006], [121.05155845400009, 14.535643612000055], [121.05328143400004, 14.542459378000046], [121.05466490700007, 14.541129210000063], [121.05590685300001, 14.54216903200006], [121.05877974500004, 14.537557579000062], [121.05779210700007, 14.536210857000068], [121.05973016200005, 14.531029767000065], [121.0617142540001, 14.535277307000062], [121.06720877000011, 14.53628527600006], [121.06091744900004, 14.544062659000069], [121.06197803700002, 14.545327943000075], [121.0638743720001, 14.542714198000052], [121.06746195000004, 14.54914952700005], [121.06431954100005, 14.551917179000043]]]}}, {"type": "Feature", "id": "PH1307603", "properties": {"cityPsgc": "PH1307603", "city": "City of Muntinlupa"}, "geometry": {"type": "Polygon", "coordinates": [[[121.05738463300008, 14.466723355000058], [121.04668523600003, 14.467856441000034], [121.04416844100001, 14.453706491000046], [121.04515791100006, 14.452245447000054], [121.042100419, 14.451853967000037], [121.04290591000006, 14.449209906000021], [121.04074, 14.44837], [121.04141463600001, 14.443858062000066], [121.03668033500001, 14.440158564000058], [121.03313923200007, 14.442494227000056], [121.02426, 14.43722], [121.02240396000002, 14.422385589000042], [121.0126901010001, 14.406896132000039], [121.00932225500003, 14.391410368000034], [121.01044075000004, 14.384692120000066], [121.01344750200008, 14.379234479000047], [121.01255710800002, 14.374886601000075], [121.0107845030001, 14.374852788000055], [121.00718216100006, 14.370073908000052], [121.00689103200013, 14.353943146000061], [121.01542139300011, 14.351729568000051], [121.01945223300004, 14.353054343000053], [121.02591499100004, 14.359451931000022], [121.02934267900002, 14.365877452000063], [121.0361947350001, 14.366279267000037], [121.04342044200007, 14.37181905000006], [121.04546609300007, 14.367266193000034], [121.04838804600003, 14.367284537000044], [121.05228134600009, 14.370942866000064], [121.05255455200007, 14.374777004000064], [121.0539711350001, 14.374131615000064], [121.05738450200012, 14.378639585000029], [121.05783277400008, 14.38051458800004], [121.05538691100001, 14.381992093000061], [121.05481133700005, 14.386520500000076], [121.05330222600001, 14.387228251000067], [121.05378433000011, 14.392090272000072], [121.05185604700011, 14.393680779000022], [121.05103386400003, 14.398819309000032], [121.05217421900012, 14.401939121000051], [121.05123885500008, 14.40854673800004], [121.05351218800001, 14.413408974000047], [121.05224870100007, 14.414377360000056], [121.0521022700001, 14.420628480000056], [121.05397952000008, 14.425270104000049], [121.05187271600006, 14.427513727000076], [121.05167949500003, 14.439392591000056], [121.05378482200001, 14.439944492000052], [121.05560813600005, 14.44574111200006], [121.05397241500008, 14.446450445000036], [121.05392888200004, 14.451812502000053], [121.0527846760001, 14.447051351000027], [121.0533802880001, 14.454051363000076], [121.05514036500007, 14.456519028000058], [121.05395265200002, 14.457436639000033], [121.05738463300008, 14.466723355000058]]]}}, {"type": "Feature", "id": "PH1307604", "properties": {"cityPsgc": "PH1307604", "city": "City of Para\u00f1aque"}, "geometry": {"type": "Polygon", "coordinates": [[[121.03527359300006, 14.506378342000062], [121.02343867600007, 14.505245665000077], [121.01938075700002, 14.502097732000037], [121.01442396900006, 14.50418128300004], [121.00718178100009, 14.510823009000038], [121.00216511800012, 14.50945277300008], [121.0012187530001, 14.506799297000043], [120.99948601300002, 14.507655509000074], [121.00111301800005, 14.511842245000027], [121.00052432900007, 14.51686796100006], [120.99801943600006, 14.516945465000047], [120.99947066100005, 14.519691627000043], [120.9988313140001, 14.532654936000029], [120.99268821400005, 14.532966999000054], [120.99284349300002, 14.531263857000058], [120.97914223700002, 14.529580794000028], [120.97937278600011, 14.519198478000026], [120.98059530000012, 14.518783126000072], [120.97935807600005, 14.518841384000037], [120.974211921, 14.508107632000076], [120.9897418380001, 14.502586016000071], [120.98697282400009, 14.494243013000073], [120.98451735800006, 14.49183338000006], [120.98117700500006, 14.492935074000059], [120.98806607000006, 14.50195394800005], [120.98473163200005, 14.50329837100003], [120.98173277400008, 14.501909838000076], [120.98104692700008, 14.493267734000023], [120.97602635300007, 14.492613259000052], [120.97626195400005, 14.49011177400007], [120.978811833, 14.489010114000052], [120.97886222500006, 14.49190735400003], [120.98056903400004, 14.492772793000029], [120.98244016900003, 14.491702240000052], [120.98077125500004, 14.48746457600004], [120.98952517300008, 14.482288854000045], [120.99247786100013, 14.483172892000027], [120.99035422600002, 14.47833448000006], [120.991210689, 14.476079693000031], [120.996718567, 14.47425229300006], [121.00221383300004, 14.46725885300003], [121.00175103200003, 14.453732070000058], [121.00411656000006, 14.455022358000063], [121.01121079700012, 14.452593389000068], [121.0207609130001, 14.43528309800007], [121.0243382450001, 14.436169403000063], [121.0279942190001, 14.440199183000061], [121.03313923200007, 14.442494227000056], [121.0363984820001, 14.440122429000041], [121.0396867700001, 14.442044813000058], [121.04141463600001, 14.443858062000066], [121.04074, 14.44837], [121.04290591000006, 14.449209906000021], [121.042100419, 14.451853967000037], [121.04515791100006, 14.452245447000054], [121.04416844100001, 14.453706491000046], [121.04645529800007, 14.461603443000056], [121.04568175900012, 14.465679895000044], [121.04817243500008, 14.474863256000049], [121.04585724300011, 14.481629635000047], [121.04772115000002, 14.492622752000045], [121.04686590800009, 14.500259387000028], [121.03872551300003, 14.504722076000066], [121.03654920300005, 14.503924436000034], [121.03527359300006, 14.506378342000062]]]}}, {"type": "Feature", "id": "PH1307605", "properties": {"cityPsgc": "PH1307605", "city": "Pasay City"}, "geometry": {"type": "Polygon", "coordinates": [[[120.9988221530001, 14.56171635700002], [120.98751161400004, 14.558607406000023], [120.98678599600011, 14.560332775000067], [120.98235756300005, 14.558161812000037], [120.97977547000006, 14.562418400000071], [120.98228129900006, 14.558095897000044], [120.97848884800011, 14.555839239000022], [120.98280159700005, 14.542755799000076], [120.97866733200009, 14.54150651400005], [120.97912995200011, 14.52998583300007], [120.980154243, 14.530113934000042], [120.97914539700002, 14.529497045000026], [120.99284349300002, 14.531263857000058], [120.99268821400005, 14.532966999000054], [120.9988313140001, 14.532654936000029], [120.99947066100005, 14.519691627000043], [120.99801943600006, 14.516945465000047], [121.00052432900007, 14.51686796100006], [121.00111301800005, 14.511842245000027], [120.99948601300002, 14.507655509000074], [121.0012187530001, 14.506799297000043], [121.00216511800012, 14.50945277300008], [121.00718178100009, 14.510823009000038], [121.01442396900006, 14.50418128300004], [121.01938075700002, 14.502097732000037], [121.02343867600007, 14.505245665000077], [121.03527359300006, 14.506378342000062], [121.0222366910001, 14.530536428000062], [121.01181661200008, 14.530098235000027], [121.01294378600006, 14.539075190000068], [121.00901621700007, 14.540370066000035], [121.00929099700011, 14.547564459000057], [121.00150473300005, 14.552706514000024], [120.9988221530001, 14.56171635700002]]]}}, {"type": "Feature", "id": "PH1307607", "properties": {"cityPsgc": "PH1307607", "city": "Taguig City"}, "geometry": {"type": "Polygon", "coordinates": [[[121.05738463300008, 14.466723355000058], [121.06121598100003, 14.474133134000054], [121.06319038000005, 14.484954312000069], [121.06217712200011, 14.487713453000028], [121.06932934800011, 14.506686393000052], [121.08524669300004, 14.505624271000043], [121.08828233100007, 14.508806965000076], [121.09348982000006, 14.520148077000046], [121.0951388210001, 14.520420050000038], [121.09393882900008, 14.52184096600007], [121.09620749500004, 14.522171409000068], [121.1010505710001, 14.527590912000047], [121.10247570600008, 14.524309028000063], [121.10384570800011, 14.530768855000076], [121.1025833670001, 14.534944976000077], [121.09628064200002, 14.540916531000049], [121.09436799700006, 14.546736230000024], [121.08782208900006, 14.545304730000057], [121.08775358300012, 14.546951751000055], [121.07805766000001, 14.546894164000035], [121.07206738700005, 14.541959064000025], [121.0726879250001, 14.538078582000027], [121.06698321500005, 14.538150757000041], [121.06664600200008, 14.535576625000033], [121.06126890500002, 14.534941237000055], [121.06147566600009, 14.532725046000053], [121.05973016200005, 14.531029767000065], [121.05779210700007, 14.536210857000068], [121.05877974500004, 14.537557579000062], [121.05590685300001, 14.54216903200006], [121.05466490700007, 14.541129210000063], [121.05328143400004, 14.542459378000046], [121.05155845400009, 14.535643612000055], [121.04699974500012, 14.53548545600006], [121.046393995, 14.542844201000033], [121.04472253200004, 14.54079623800004], [121.03970020400006, 14.53983291400004], [121.03811473400003, 14.536255572000073], [121.033448635, 14.533932557000071], [121.03019809800004, 14.534673097000052], [121.0222366910001, 14.530536428000062], [121.03654920300005, 14.503924436000034], [121.03872551300003, 14.504722076000066], [121.04686590800009, 14.500259387000028], [121.04772115000002, 14.492622752000045], [121.04585724300011, 14.481629635000047], [121.04817243500008, 14.474863256000049], [121.04668523600003, 14.467856441000034], [121.05738463300008, 14.466723355000058]]]}}, {"type": "Feature", "id": "PH1307606", "properties": {"cityPsgc": "PH1307606", "city": "Pateros"}, "geometry": {"type": "Polygon", "coordinates": [[[121.07805766000001, 14.546894164000035], [121.074889535, 14.547957003000022], [121.07582496400005, 14.549826778000067], [121.07298670500008, 14.551652334000035], [121.06546257500008, 14.552184556000046], [121.0644524920001, 14.55116879100006], [121.06746195000004, 14.54914952700005], [121.0642771140001, 14.543228573000022], [121.06197803700002, 14.545327943000075], [121.06091744900004, 14.544062659000069], [121.06641223300004, 14.537754094000032], [121.07198997200011, 14.537816496000062], [121.07206738700005, 14.541959064000025], [121.07805766000001, 14.546894164000035]]]}}]}